OBJECT_NAME,OBJECT_ID,EPOCH,MEAN_MOTION,ECCENTRICITY,INCLINATION,RA_OF_ASC_NODE,ARG_OF_PERICENTER,MEAN_ANOMALY,EPHEMERIS_TYPE,CLASSIFICATION_TYPE,NORAD_CAT_ID,ELEMENT_SET_NO,REV_AT_EPOCH,BSTAR,MEAN_MOTION_DOT,MEAN_MOTION_DDOT
STARLINK-36848,2026-037E,2026-06-07T22:55:16.136832,15.27573562,.0000645,43.0096,41.1423,187.1421,172.9422,0,U,67936,999,1714,.10894722E-2,.29833E-3,0
STARLINK-36370,2026-037F,2026-06-07T08:53:23.615808,15.27583762,.00018067,42.9988,44.4887,271.1455,88.9189,0,U,67937,999,1705,.19892701E-3,.5216E-4,0
STARLINK-36371,2026-037G,2026-06-07T22:51:33.674976,15.27585112,.00024283,42.9930,41.1081,114.0669,246.0437,0,U,67938,999,1714,.74126486E-3,.20196E-3,0
STARLINK-36246,2026-037H,2026-06-07T22:46:01.030656,15.27558927,.00020249,43.0008,41.0913,273.6479,86.4141,0,U,67939,999,1714,-.41704041E-4,-.1409E-4,0
STARLINK-36907,2026-037J,2026-06-08T09:22:53.963904,15.27573062,.00030959,43.0099,38.3699,276.3203,83.7296,0,U,67940,999,1721,.74243441E-3,.20221E-3,0
STARLINK-36927,2026-037K,2026-06-08T09:13:38.693568,15.27602964,.00031184,43.0050,38.3248,272.9062,87.1433,0,U,67941,999,1721,.57721012E-3,.15667E-3,0
STARLINK-36914,2026-037L,2026-06-07T22:40:27.689952,15.27575218,.00032123,43.0044,41.0358,274.4019,85.6465,0,U,67942,999,1714,.80113932E-3,.21847E-3,0
STARLINK-36851,2026-037M,2026-06-08T09:28:27.142176,15.27613931,.00030946,43.0044,38.4013,271.4223,88.6274,0,U,67943,999,1721,.58071456E-3,.15769E-3,0
STARLINK-36892,2026-037N,2026-06-08T09:19:14.134656,15.27580332,.00015252,43.0023,38.3513,80.3691,279.7333,0,U,67944,999,1721,.69757764E-3,.18983E-3,0
STARLINK-36908,2026-037P,2026-06-08T09:08:06.528768,15.27573016,.00005941,43.0017,38.2882,291.6152,68.4636,0,U,67945,999,1721,.57113152E-3,.15484E-3,0
STARLINK-36909,2026-037Q,2026-06-08T09:02:32.784576,15.27575903,.00017364,43.0082,38.2472,278.4143,81.6512,0,U,67946,999,1721,.81463754E-3,.2222E-3,0
STARLINK-36920,2026-037R,2026-06-08T08:56:59.970048,15.27575965,.00013321,43.0059,38.2370,257.2477,102.8226,0,U,67947,999,1721,.59411645E-3,.1612E-3,0
STARLINK-36873,2026-037S,2026-06-08T08:53:17.422656,15.27595423,.00031995,42.9895,38.2188,271.1889,88.8596,0,U,67948,999,1721,.7866698E-3,.21461E-3,0
STARLINK-36863,2026-037T,2026-06-08T08:49:35.921568,15.27569851,.000128,43.0002,38.1883,283.7591,76.3118,0,U,67949,999,1721,.63995996E-3,.17384E-3,0
STARLINK-36887,2026-037U,2026-06-08T08:44:15.698976,15.27579059,.00016781,43.0037,39.0475,268.6831,91.3828,0,U,67950,999,1720,.44719146E-3,.12063E-3,0
STARLINK-36897,2026-037V,2026-06-08T08:38:42.548352,15.27574337,.0001552,42.9997,38.9965,287.1907,72.8774,0,U,67951,999,1720,.78186171E-3,.21312E-3,0
STARLINK-36381,2026-037W,2026-06-07T08:55:17.766624,15.27592146,.00004302,42.9987,44.4819,16.4740,343.6126,0,U,67952,999,1705,.57262329E-3,.15534E-3,0
STARLINK-36824,2026-037X,2026-06-07T23:08:11.841216,15.27611398,.00008246,43.0023,41.2057,205.0061,155.0750,0,U,67953,999,1714,.57148468E-3,.15512E-3,0
STARLINK-36869,2026-037Y,2026-06-07T22:47:52.388160,15.27595475,.0002543,43.0019,41.0947,273.2492,86.8069,0,U,67954,999,1714,.96931663E-3,.26521E-3,0
STARLINK-36872,2026-037Z,2026-06-07T22:36:45.409536,15.27598053,.00037618,43.0024,41.0160,281.8530,78.1899,0,U,67955,999,1714,.43727529E-3,.11798E-3,0
STARLINK-36918,2026-037AA,2026-06-07T22:31:12.539712,15.27605635,.00051131,43.0057,40.9941,279.6607,80.3667,0,U,67956,999,1714,.6933105E-3,.18885E-3,0
STARLINK-36829,2026-037AB,2026-06-08T03:24:47.113344,15.27577317,.000206,42.9998,39.9527,292.2554,67.8079,0,U,67957,999,1716,.59170575E-3,.16055E-3,0
STARLINK-36799,2026-037AC,2026-06-08T09:24:45.336096,15.27601465,.00017663,42.9979,38.3681,261.7919,98.2732,0,U,67958,999,1721,.69121666E-3,.1882E-3,0
STARLINK-36834,2026-037AD,2026-06-08T09:09:57.557952,15.27581877,.00010709,43.0030,38.3043,284.1062,75.9671,0,U,67959,999,1721,.87631013E-3,.23932E-3,0
STARLINK-36841,2026-037AE,2026-06-08T09:15:29.420352,15.27607431,.00023451,43.0041,38.3295,263.3562,96.7023,0,U,67960,999,1721,.49627978E-3,.13431E-3,0
STARLINK-36912,2026-038A,2026-06-08T18:34:57.817056,15.33478799,.0001496,97.2852,169.5285,79.9793,280.1618,0,U,67961,999,1719,.81553E-3,.26374E-3,0
STARLINK-36881,2026-038B,2026-06-08T18:31:04.481760,15.33455879,.0001746,97.2859,169.5321,85.9063,274.2379,0,U,67962,999,1719,.10734E-2,.3475E-3,0
STARLINK-36357,2026-038C,2026-06-08T18:23:14.671392,15.33449685,.0001951,97.2865,169.5385,89.7882,270.3585,0,U,67963,999,1719,.81338E-3,.2628E-3,0
STARLINK-36349,2026-038D,2026-06-08T18:27:09.734688,15.33445842,.0002443,97.2841,169.5358,89.0590,271.0933,0,U,67964,999,1719,.7346E-3,.23717E-3,0
STARLINK-36806,2026-038E,2026-06-08T12:03:27.257184,15.33447979,.00014434,97.2853,169.2848,122.3684,237.7698,0,U,67965,999,1715,.7113443E-3,.22962E-3,0
STARLINK-36820,2026-038F,2026-06-08T18:15:24.722784,15.33446392,.0001567,97.2871,169.5477,103.2209,256.9209,0,U,67966,999,1719,.79072E-3,.2554E-3,0
STARLINK-36819,2026-038G,2026-06-08T18:11:30.247008,15.33445904,.0002852,97.2840,169.5471,89.2314,270.9256,0,U,67967,999,1719,.85005E-3,.27471E-3,0
STARLINK-36812,2026-038H,2026-06-08T11:51:43.247520,15.33465679,.0001354,97.2862,169.2985,89.4653,270.6745,0,U,67968,999,1715,.83121887E-3,.26873E-3,0
STARLINK-36709,2026-038J,2026-06-08T17:59:44.236320,15.33434453,.0001452,97.2842,169.5606,92.4436,267.6973,0,U,67969,999,1719,.47963E-3,.15436E-3,0
STARLINK-36319,2026-038K,2026-06-08T18:03:38.865024,15.33420530,.0001804,97.2859,169.5575,97.0485,263.0963,0,U,67970,999,1719,.18705E-3,.5964E-4,0
STARLINK-36710,2026-038L,2026-06-08T17:55:50.253024,15.33448896,.0002067,97.2860,169.5624,79.6244,280.5232,0,U,67971,999,1719,.78632E-3,.254E-3,0
STARLINK-36894,2026-038M,2026-06-08T17:51:55.276128,15.33445756,.0001859,97.2840,169.5675,86.6115,273.5341,0,U,67972,999,1719,.71194E-3,.2298E-3,0
STARLINK-36900,2026-038N,2026-06-08T11:28:14.793600,15.33445555,.00017703,97.2841,169.3156,91.0189,269.1256,0,U,67973,999,1715,.78242255E-3,.2527E-3,0
STARLINK-36901,2026-038P,2026-06-08T17:47:59.775648,15.33402436,.0002452,97.2865,169.5736,90.3062,269.8461,0,U,67974,999,1719,.30018E-3,.9616E-4,0
STARLINK-36883,2026-038Q,2026-06-08T11:12:33.397344,15.33442086,.00015167,97.2844,169.3335,101.0780,259.0634,0,U,67975,999,1715,.56644264E-3,.18255E-3,0
STARLINK-36880,2026-038R,2026-06-08T11:24:18.033408,15.33449482,.00014292,97.2852,169.3181,92.3366,267.8041,0,U,67976,999,1715,.62555147E-3,.20177E-3,0
STARLINK-36904,2026-038S,2026-06-08T11:16:28.259328,15.33440457,.00013278,97.2851,169.3289,106.4856,253.6533,0,U,67977,999,1715,.59322502E-3,.19122E-3,0
STARLINK-36364,2026-038T,2026-06-08T11:04:43.558464,15.33439120,.00012825,97.2842,169.3407,99.2169,260.9219,0,U,67978,999,1715,.54656064E-3,.17608E-3,0
STARLINK-36359,2026-038U,2026-06-08T11:20:21.660288,15.33459589,.00007766,97.2874,169.3229,109.5281,250.6045,0,U,67979,999,1715,.51432644E-3,.16573E-3,0
STARLINK-36882,2026-038V,2026-06-08T11:08:38.559552,15.33437114,.00015145,97.2843,169.3356,88.8914,271.2503,0,U,67980,999,1715,.37033433E-3,.11897E-3,0
STARLINK-36874,2026-038W,2026-06-08T18:50:37.036896,15.33513417,.0002279,97.2822,169.6649,86.0100,274.1403,0,U,67981,999,1720,.14528E-2,.47226E-3,0
STARLINK-36879,2026-038X,2026-06-08T10:56:53.797344,15.33443894,.00013244,97.2845,169.3457,96.0629,264.0765,0,U,67982,999,1715,.54180687E-3,.17456E-3,0
STARLINK-36867,2026-038Y,2026-06-08T18:38:54.249792,15.33451495,.000174,97.2847,169.6749,93.4277,266.7165,0,U,67983,999,1720,.74644E-3,.24105E-3,0
STARLINK-36266,2026-038Z,2026-06-08T18:42:49.260384,15.33455328,.000182,97.2837,169.6768,69.5205,290.6233,0,U,67984,999,1720,.70819E-3,.22865E-3,0
STARLINK-36802,2026-038AA,2026-06-08T18:33:11.627136,15.33431866,.0001687,97.2836,170.4472,84.2193,275.9242,0,U,67985,999,1725,.5926E-3,.19097E-3,0
STARLINK-36535,2026-039A,2026-06-08T13:00:29.668320,15.27587271,.0004017,43.0046,256.2358,272.9685,87.0707,0,U,67986,999,1559,.58794468E-3,.15957E-3,0
STARLINK-36744,2026-039B,2026-06-08T12:54:56.395872,15.27596708,.00010302,43.0001,256.2054,219.4530,140.6247,0,U,67987,999,1559,.10062274E-2,.27545E-3,0
STARLINK-36734,2026-039C,2026-06-08T12:49:23.998656,15.27582608,.00039863,43.0009,256.2017,269.5438,90.4957,0,U,67988,999,1559,.62624885E-3,.17014E-3,0
STARLINK-36957,2026-039D,2026-06-08T00:10:35.340672,15.27574560,.00018113,43.0040,259.1044,277.3524,82.7122,0,U,67989,999,1551,.69289803E-3,.18851E-3,0
STARLINK-36951,2026-039E,2026-06-08T00:05:03.142176,15.27570452,.00011369,42.9919,259.0720,146.5796,213.5127,0,U,67990,999,1551,.91146858E-3,.24897E-3,0
STARLINK-36941,2026-039F,2026-06-08T00:01:20.767584,15.27561679,.00014039,43.0033,259.0718,232.6689,127.4035,0,U,67991,999,1551,.41889929E-3,.11276E-3,0
STARLINK-36950,2026-039G,2026-06-07T23:55:47.895168,15.27558882,.00018657,42.9966,259.0386,265.7791,94.2847,0,U,67992,999,1551,.66561439E-3,.18088E-3,0
STARLINK-36975,2026-039H,2026-06-08T06:06:51.808320,15.27575290,.0001448,43.0014,257.5286,253.8193,106.2500,0,U,67993,999,1555,.53382E-3,.14454E-3,0
STARLINK-36993,2026-039J,2026-06-08T13:52:03.924480,15.27613706,.00028845,42.9971,255.6394,256.9052,103.1478,0,U,67994,999,1560,.10719554E-2,.29386E-3,0
STARLINK-36968,2026-039K,2026-06-08T13:26:12.199488,15.27580933,.00012843,42.9967,255.5204,293.9976,66.0741,0,U,67995,999,1560,.85575057E-3,.23362E-3,0
STARLINK-36979,2026-039L,2026-06-08T13:46:32.184768,15.27594234,.00014808,43.0010,255.6041,254.2950,105.7738,0,U,67996,999,1560,.84378878E-3,.2304E-3,0
STARLINK-36994,2026-039M,2026-06-07T23:07:40.515168,15.27574403,.00017238,42.9982,258.7685,264.3081,95.7574,0,U,67997,999,1551,.11026223E-2,.30199E-3,0
STARLINK-36988,2026-039N,2026-06-08T13:20:38.431104,15.27596227,.00014051,42.9978,255.4763,288.9323,71.1376,0,U,67998,999,1560,.97342816E-3,.26635E-3,0
STARLINK-36926,2026-039P,2026-06-08T13:09:31.899168,15.27602311,.00022234,42.9994,255.4150,272.2067,87.8530,0,U,67999,999,1560,.53318326E-3,.14449E-3,0
